{
  "type": "FeatureCollection",
  "generator": "overpass-turbo",
  "copyright": "The data included in this document is from www.openstreetmap.org. The data is made available under ODbL.",
  "timestamp": "2025-10-25T06:14:23Z",
  "features": [
    {
      "type": "Feature",
      "properties": {
        "@id": "relation/10693119",
        "colour": "#f16227",
        "from": "Pegangsaan Dua",
        "name": "LRT Jakarta",
        "name:en": "Jakarta LRT",
        "name:fr": "Pegangsaan Dua->Velodrome",
        "name:id": "LRT Jakarta",
        "network": "LRT Jakarta",
        "public_transport:version": "2",
        "ref": "LRT",
        "route": "light_rail",
        "to": "Velodrome",
        "type": "route",
        "wikidata": "Q65762187"
      },
      "geometry": {
        "type": "LineString",
        "coordinates": [
          [
            106.8911977,
            -6.1926655
          ],
          [
            106.8912038,
            -6.1921305
          ],
          [
            106.8912162,
            -6.1910091
          ],
          [
            106.8911647,
            -6.1889457
          ],
          [
            106.8911416,
            -6.1877057
          ],
          [
            106.8912133,
            -6.1849941
          ],
          [
            106.8913115,
            -6.184061
          ],
          [
            106.8913362,
            -6.1838261
          ],
          [
            106.8913593,
            -6.1836064
          ],
          [
            106.8914342,
            -6.1831936
          ],
          [
            106.891869,
            -6.1807979
          ],
          [
            106.8919176,
            -6.1806197
          ],
          [
            106.8926579,
            -6.1784892
          ],
          [
            106.8927276,
            -6.178364
          ],
          [
            106.8934157,
            -6.1773185
          ],
          [
            106.8938929,
            -6.1766275
          ],
          [
            106.8940201,
            -6.1764678
          ],
          [
            106.8941134,
            -6.1763743
          ],
          [
            106.8942033,
            -6.1762983
          ],
          [
            106.8942985,
            -6.1762263
          ],
          [
            106.8944125,
            -6.176157
          ],
          [
            106.894556,
            -6.1760796
          ],
          [
            106.8947236,
            -6.1759956
          ],
          [
            106.8953003,
            -6.175693
          ],
          [
            106.8954948,
            -6.1755783
          ],
          [
            106.8956181,
            -6.1754983
          ],
          [
            106.8957281,
            -6.1754143
          ],
          [
            106.8958502,
            -6.1753063
          ],
          [
            106.8959574,
            -6.175201
          ],
          [
            106.8961,
            -6.1750483
          ],
          [
            106.896253,
            -6.1748565
          ],
          [
            106.8972518,
            -6.1734082
          ],
          [
            106.8975735,
            -6.1728783
          ],
          [
            106.8991734,
            -6.1703117
          ],
          [
            106.8995114,
            -6.1697797
          ],
          [
            106.9000387,
            -6.1690075
          ],
          [
            106.901134,
            -6.1673125
          ],
          [
            106.9051351,
            -6.160882
          ],
          [
            106.9056655,
            -6.1599966
          ],
          [
            106.9058762,
            -6.1596613
          ],
          [
            106.9078376,
            -6.1565395
          ],
          [
            106.907843,
            -6.1565315
          ],
          [
            106.9086644,
            -6.1552861
          ],
          [
            106.9089126,
            -6.1548971
          ],
          [
            106.9089785,
            -6.1548032
          ],
          [
            106.9090485,
            -6.1547249
          ],
          [
            106.9091177,
            -6.1546677
          ],
          [
            106.9091998,
            -6.154627
          ],
          [
            106.9093073,
            -6.1545947
          ],
          [
            106.9093954,
            -6.1545829
          ],
          [
            106.9096574,
            -6.1546115
          ],
          [
            106.9103517,
            -6.1547065
          ],
          [
            106.9108498,
            -6.154754
          ],
          [
            106.9121835,
            -6.1548407
          ],
          [
            106.9135529,
            -6.1549039
          ],
          [
            106.9136231,
            -6.1549089
          ],
          [
            106.9136941,
            -6.1549224
          ],
          [
            106.9137598,
            -6.1549403
          ],
          [
            106.9138087,
            -6.1549559
          ],
          [
            106.9138548,
            -6.1549774
          ],
          [
            106.9138953,
            -6.1550023
          ],
          [
            106.9139398,
            -6.155034
          ],
          [
            106.9139792,
            -6.1550663
          ],
          [
            106.9140111,
            -6.1550972
          ],
          [
            106.9140452,
            -6.1551363
          ],
          [
            106.9140762,
            -6.1551773
          ],
          [
            106.9140935,
            -6.1552089
          ],
          [
            106.9141133,
            -6.155249
          ],
          [
            106.9141275,
            -6.1552929
          ],
          [
            106.9141409,
            -6.1553503
          ],
          [
            106.9141498,
            -6.1554233
          ],
          [
            106.914152,
            -6.1554954
          ],
          [
            106.9141503,
            -6.1559112
          ],
          [
            106.9141377,
            -6.1572054
          ]
        ]
      },
      "id": "relation/10693119"
    },
    {
      "type": "Feature",
      "properties": {
        "@id": "relation/10693160",
        "colour": "#f16227",
        "from": "Velodrome",
        "name": "LRT Jakarta",
        "name:en": "Jakarta LRT",
        "name:fr": "Velodrome -> Pegangsaan Dua",
        "name:id": "LRT Jakarta",
        "network": "LRT Jakarta",
        "public_transport:version": "2",
        "ref": "LRT",
        "route": "light_rail",
        "to": "Pegangsaan Dua",
        "type": "route",
        "wikidata": "Q65762187"
      },
      "geometry": {
        "type": "LineString",
        "coordinates": [
          [
            106.8911499,
            -6.192666
          ],
          [
            106.8911527,
            -6.1921303
          ],
          [
            106.8911592,
            -6.1910012
          ],
          [
            106.8911389,
            -6.1893953
          ],
          [
            106.8911228,
            -6.1889489
          ],
          [
            106.8911019,
            -6.1877074
          ],
          [
            106.8911604,
            -6.1850355
          ],
          [
            106.8912417,
            -6.1840586
          ],
          [
            106.8912558,
            -6.1839335
          ],
          [
            106.8912831,
            -6.1836924
          ],
          [
            106.8912943,
            -6.1835929
          ],
          [
            106.891377,
            -6.183143
          ],
          [
            106.8918094,
            -6.1807895
          ],
          [
            106.8918607,
            -6.180603
          ],
          [
            106.8926051,
            -6.1784771
          ],
          [
            106.8926813,
            -6.1783324
          ],
          [
            106.8933719,
            -6.1772953
          ],
          [
            106.893858,
            -6.176607
          ],
          [
            106.8939942,
            -6.176437
          ],
          [
            106.894073,
            -6.1763503
          ],
          [
            106.894184,
            -6.1762607
          ],
          [
            106.8942736,
            -6.1761961
          ],
          [
            106.8943813,
            -6.1761215
          ],
          [
            106.8945421,
            -6.1760349
          ],
          [
            106.8947018,
            -6.1759404
          ],
          [
            106.8952829,
            -6.175661
          ],
          [
            106.8954746,
            -6.1755476
          ],
          [
            106.8955967,
            -6.1754676
          ],
          [
            106.895712,
            -6.175381
          ],
          [
            106.8958367,
            -6.1752743
          ],
          [
            106.89594,
            -6.1751703
          ],
          [
            106.8960768,
            -6.175021
          ],
          [
            106.8962216,
            -6.1748303
          ],
          [
            106.8972181,
            -6.1733797
          ],
          [
            106.897548,
            -6.1728623
          ],
          [
            106.8991479,
            -6.1702903
          ],
          [
            106.8994832,
            -6.1697557
          ],
          [
            106.8999908,
            -6.1689794
          ],
          [
            106.9019236,
            -6.1659423
          ],
          [
            106.9048494,
            -6.1612223
          ],
          [
            106.9050747,
            -6.1608562
          ],
          [
            106.9055899,
            -6.1599617
          ],
          [
            106.9058073,
            -6.1596205
          ],
          [
            106.9077893,
            -6.1565106
          ],
          [
            106.9077937,
            -6.1564999
          ],
          [
            106.9086027,
            -6.1552394
          ],
          [
            106.9088447,
            -6.1548601
          ],
          [
            106.9089294,
            -6.1547464
          ],
          [
            106.9090027,
            -6.1546778
          ],
          [
            106.9090814,
            -6.1546203
          ],
          [
            106.9091705,
            -6.1545771
          ],
          [
            106.9092633,
            -6.1545539
          ],
          [
            106.9092919,
            -6.1545468
          ],
          [
            106.9094123,
            -6.1545366
          ],
          [
            106.9096935,
            -6.1545734
          ],
          [
            106.9103552,
            -6.1546688
          ],
          [
            106.9108571,
            -6.1547167
          ],
          [
            106.9121885,
            -6.1548063
          ],
          [
            106.913759,
            -6.1548856
          ],
          [
            106.9138336,
            -6.1548968
          ],
          [
            106.9138968,
            -6.1549119
          ],
          [
            106.9139561,
            -6.1549328
          ],
          [
            106.9140251,
            -6.1549713
          ],
          [
            106.9140744,
            -6.15501
          ],
          [
            106.9141194,
            -6.1550444
          ],
          [
            106.9141718,
            -6.1550963
          ],
          [
            106.9142209,
            -6.1551623
          ],
          [
            106.9142548,
            -6.1552282
          ],
          [
            106.9142801,
            -6.1552965
          ],
          [
            106.9142968,
            -6.1553785
          ],
          [
            106.9143047,
            -6.1554662
          ],
          [
            106.9143069,
            -6.1555618
          ],
          [
            106.9143009,
            -6.1559132
          ],
          [
            106.9142841,
            -6.15721
          ]
        ]
      },
      "id": "relation/10693160"
    },
    {
      "type": "Feature",
      "properties": {
        "@id": "way/501086733",
        "@relations": [
          {
            "role": "",
            "rel": 10693119,
            "reltags": {
              "colour": "#f16227",
              "from": "Pegangsaan Dua",
              "name": "LRT Jakarta",
              "name:en": "Jakarta LRT",
              "name:fr": "Pegangsaan Dua->Velodrome",
              "name:id": "LRT Jakarta",
              "network": "LRT Jakarta",
              "public_transport:version": "2",
              "ref": "LRT",
              "route": "light_rail",
              "to": "Velodrome",
              "type": "route",
              "wikidata": "Q65762187"
            }
          }
        ]
      },
      "geometry": {
        "type": "LineString",
        "coordinates": [
          [
            106.8911977,
            -6.1926655
          ],
          [
            106.8912038,
            -6.1921305
          ],
          [
            106.8912162,
            -6.1910091
          ],
          [
            106.8911647,
            -6.1889457
          ],
          [
            106.8911416,
            -6.1877057
          ],
          [
            106.8912133,
            -6.1849941
          ],
          [
            106.8913115,
            -6.184061
          ],
          [
            106.8913362,
            -6.1838261
          ],
          [
            106.8913593,
            -6.1836064
          ],
          [
            106.8914342,
            -6.1831936
          ],
          [
            106.891869,
            -6.1807979
          ],
          [
            106.8919176,
            -6.1806197
          ],
          [
            106.8926579,
            -6.1784892
          ],
          [
            106.8927276,
            -6.178364
          ],
          [
            106.8934157,
            -6.1773185
          ],
          [
            106.8938929,
            -6.1766275
          ],
          [
            106.8940201,
            -6.1764678
          ],
          [
            106.8941134,
            -6.1763743
          ],
          [
            106.8942033,
            -6.1762983
          ],
          [
            106.8942985,
            -6.1762263
          ],
          [
            106.8944125,
            -6.176157
          ],
          [
            106.894556,
            -6.1760796
          ],
          [
            106.8947236,
            -6.1759956
          ],
          [
            106.8953003,
            -6.175693
          ],
          [
            106.8954948,
            -6.1755783
          ],
          [
            106.8956181,
            -6.1754983
          ],
          [
            106.8957281,
            -6.1754143
          ],
          [
            106.8958502,
            -6.1753063
          ],
          [
            106.8959574,
            -6.175201
          ],
          [
            106.8961,
            -6.1750483
          ],
          [
            106.896253,
            -6.1748565
          ],
          [
            106.8972518,
            -6.1734082
          ],
          [
            106.8975735,
            -6.1728783
          ],
          [
            106.8991734,
            -6.1703117
          ],
          [
            106.8995114,
            -6.1697797
          ],
          [
            106.9000387,
            -6.1690075
          ],
          [
            106.901134,
            -6.1673125
          ],
          [
            106.9051351,
            -6.160882
          ],
          [
            106.9056655,
            -6.1599966
          ],
          [
            106.9058762,
            -6.1596613
          ],
          [
            106.9078376,
            -6.1565395
          ],
          [
            106.907843,
            -6.1565315
          ],
          [
            106.9086644,
            -6.1552861
          ],
          [
            106.9089126,
            -6.1548971
          ],
          [
            106.9089785,
            -6.1548032
          ],
          [
            106.9090485,
            -6.1547249
          ],
          [
            106.9091177,
            -6.1546677
          ],
          [
            106.9091998,
            -6.154627
          ],
          [
            106.9093073,
            -6.1545947
          ],
          [
            106.9093954,
            -6.1545829
          ],
          [
            106.9096574,
            -6.1546115
          ],
          [
            106.9103517,
            -6.1547065
          ],
          [
            106.9108498,
            -6.154754
          ],
          [
            106.9121835,
            -6.1548407
          ],
          [
            106.9135529,
            -6.1549039
          ],
          [
            106.9136231,
            -6.1549089
          ],
          [
            106.9136941,
            -6.1549224
          ],
          [
            106.9137598,
            -6.1549403
          ],
          [
            106.9138087,
            -6.1549559
          ]
        ]
      },
      "id": "way/501086733"
    },
    {
      "type": "Feature",
      "properties": {
        "@id": "way/759643948",
        "@relations": [
          {
            "role": "",
            "rel": 10693160,
            "reltags": {
              "colour": "#f16227",
              "from": "Velodrome",
              "name": "LRT Jakarta",
              "name:en": "Jakarta LRT",
              "name:fr": "Velodrome -> Pegangsaan Dua",
              "name:id": "LRT Jakarta",
              "network": "LRT Jakarta",
              "public_transport:version": "2",
              "ref": "LRT",
              "route": "light_rail",
              "to": "Pegangsaan Dua",
              "type": "route",
              "wikidata": "Q65762187"
            }
          }
        ]
      },
      "geometry": {
        "type": "LineString",
        "coordinates": [
          [
            106.8911499,
            -6.192666
          ],
          [
            106.8911527,
            -6.1921303
          ],
          [
            106.8911592,
            -6.1910012
          ],
          [
            106.8911389,
            -6.1893953
          ],
          [
            106.8911228,
            -6.1889489
          ],
          [
            106.8911019,
            -6.1877074
          ],
          [
            106.8911604,
            -6.1850355
          ],
          [
            106.8912417,
            -6.1840586
          ],
          [
            106.8912558,
            -6.1839335
          ],
          [
            106.8912831,
            -6.1836924
          ],
          [
            106.8912943,
            -6.1835929
          ],
          [
            106.891377,
            -6.183143
          ],
          [
            106.8918094,
            -6.1807895
          ],
          [
            106.8918607,
            -6.180603
          ],
          [
            106.8926051,
            -6.1784771
          ],
          [
            106.8926813,
            -6.1783324
          ],
          [
            106.8933719,
            -6.1772953
          ],
          [
            106.893858,
            -6.176607
          ],
          [
            106.8939942,
            -6.176437
          ],
          [
            106.894073,
            -6.1763503
          ],
          [
            106.894184,
            -6.1762607
          ],
          [
            106.8942736,
            -6.1761961
          ],
          [
            106.8943813,
            -6.1761215
          ],
          [
            106.8945421,
            -6.1760349
          ],
          [
            106.8947018,
            -6.1759404
          ],
          [
            106.8952829,
            -6.175661
          ],
          [
            106.8954746,
            -6.1755476
          ],
          [
            106.8955967,
            -6.1754676
          ],
          [
            106.895712,
            -6.175381
          ],
          [
            106.8958367,
            -6.1752743
          ],
          [
            106.89594,
            -6.1751703
          ],
          [
            106.8960768,
            -6.175021
          ],
          [
            106.8962216,
            -6.1748303
          ],
          [
            106.8972181,
            -6.1733797
          ],
          [
            106.897548,
            -6.1728623
          ],
          [
            106.8991479,
            -6.1702903
          ],
          [
            106.8994832,
            -6.1697557
          ],
          [
            106.8999908,
            -6.1689794
          ],
          [
            106.9019236,
            -6.1659423
          ],
          [
            106.9048494,
            -6.1612223
          ]
        ]
      },
      "id": "way/759643948"
    },
    {
      "type": "Feature",
      "properties": {
        "@id": "way/648699379",
        "@relations": [
          {
            "role": "",
            "rel": 10693160,
            "reltags": {
              "colour": "#f16227",
              "from": "Velodrome",
              "name": "LRT Jakarta",
              "name:en": "Jakarta LRT",
              "name:fr": "Velodrome -> Pegangsaan Dua",
              "name:id": "LRT Jakarta",
              "network": "LRT Jakarta",
              "public_transport:version": "2",
              "ref": "LRT",
              "route": "light_rail",
              "to": "Pegangsaan Dua",
              "type": "route",
              "wikidata": "Q65762187"
            }
          }
        ]
      },
      "geometry": {
        "type": "LineString",
        "coordinates": [
          [
            106.9048494,
            -6.1612223
          ],
          [
            106.9050747,
            -6.1608562
          ],
          [
            106.9055899,
            -6.1599617
          ],
          [
            106.9058073,
            -6.1596205
          ],
          [
            106.9077893,
            -6.1565106
          ],
          [
            106.9077937,
            -6.1564999
          ],
          [
            106.9086027,
            -6.1552394
          ],
          [
            106.9088447,
            -6.1548601
          ],
          [
            106.9089294,
            -6.1547464
          ],
          [
            106.9090027,
            -6.1546778
          ],
          [
            106.9090814,
            -6.1546203
          ],
          [
            106.9091705,
            -6.1545771
          ],
          [
            106.9092633,
            -6.1545539
          ],
          [
            106.9092919,
            -6.1545468
          ],
          [
            106.9094123,
            -6.1545366
          ],
          [
            106.9096935,
            -6.1545734
          ],
          [
            106.9103552,
            -6.1546688
          ],
          [
            106.9108571,
            -6.1547167
          ],
          [
            106.9121885,
            -6.1548063
          ],
          [
            106.913759,
            -6.1548856
          ],
          [
            106.9138336,
            -6.1548968
          ],
          [
            106.9138968,
            -6.1549119
          ],
          [
            106.9139561,
            -6.1549328
          ],
          [
            106.9140251,
            -6.1549713
          ],
          [
            106.9140744,
            -6.15501
          ],
          [
            106.9141194,
            -6.1550444
          ],
          [
            106.9141718,
            -6.1550963
          ],
          [
            106.9142209,
            -6.1551623
          ],
          [
            106.9142548,
            -6.1552282
          ],
          [
            106.9142801,
            -6.1552965
          ],
          [
            106.9142968,
            -6.1553785
          ],
          [
            106.9143047,
            -6.1554662
          ],
          [
            106.9143069,
            -6.1555618
          ],
          [
            106.9143009,
            -6.1559132
          ]
        ]
      },
      "id": "way/648699379"
    },
    {
      "type": "Feature",
      "properties": {
        "@id": "way/1119956813",
        "@relations": [
          {
            "role": "",
            "rel": 10693160,
            "reltags": {
              "colour": "#f16227",
              "from": "Velodrome",
              "name": "LRT Jakarta",
              "name:en": "Jakarta LRT",
              "name:fr": "Velodrome -> Pegangsaan Dua",
              "name:id": "LRT Jakarta",
              "network": "LRT Jakarta",
              "public_transport:version": "2",
              "ref": "LRT",
              "route": "light_rail",
              "to": "Pegangsaan Dua",
              "type": "route",
              "wikidata": "Q65762187"
            }
          }
        ]
      },
      "geometry": {
        "type": "LineString",
        "coordinates": [
          [
            106.9143009,
            -6.1559132
          ],
          [
            106.9142841,
            -6.15721
          ]
        ]
      },
      "id": "way/1119956813"
    },
    {
      "type": "Feature",
      "properties": {
        "@id": "way/1251519820",
        "@relations": [
          {
            "role": "",
            "rel": 10693119,
            "reltags": {
              "colour": "#f16227",
              "from": "Pegangsaan Dua",
              "name": "LRT Jakarta",
              "name:en": "Jakarta LRT",
              "name:fr": "Pegangsaan Dua->Velodrome",
              "name:id": "LRT Jakarta",
              "network": "LRT Jakarta",
              "public_transport:version": "2",
              "ref": "LRT",
              "route": "light_rail",
              "to": "Velodrome",
              "type": "route",
              "wikidata": "Q65762187"
            }
          }
        ]
      },
      "geometry": {
        "type": "LineString",
        "coordinates": [
          [
            106.9141377,
            -6.1572054
          ],
          [
            106.9141503,
            -6.1559112
          ]
        ]
      },
      "id": "way/1251519820"
    },
    {
      "type": "Feature",
      "properties": {
        "@id": "way/1119956812",
        "@relations": [
          {
            "role": "",
            "rel": 10693119,
            "reltags": {
              "colour": "#f16227",
              "from": "Pegangsaan Dua",
              "name": "LRT Jakarta",
              "name:en": "Jakarta LRT",
              "name:fr": "Pegangsaan Dua->Velodrome",
              "name:id": "LRT Jakarta",
              "network": "LRT Jakarta",
              "public_transport:version": "2",
              "ref": "LRT",
              "route": "light_rail",
              "to": "Velodrome",
              "type": "route",
              "wikidata": "Q65762187"
            }
          }
        ]
      },
      "geometry": {
        "type": "LineString",
        "coordinates": [
          [
            106.9138087,
            -6.1549559
          ],
          [
            106.9138548,
            -6.1549774
          ],
          [
            106.9138953,
            -6.1550023
          ],
          [
            106.9139398,
            -6.155034
          ],
          [
            106.9139792,
            -6.1550663
          ],
          [
            106.9140111,
            -6.1550972
          ],
          [
            106.9140452,
            -6.1551363
          ],
          [
            106.9140762,
            -6.1551773
          ],
          [
            106.9140935,
            -6.1552089
          ],
          [
            106.9141133,
            -6.155249
          ],
          [
            106.9141275,
            -6.1552929
          ],
          [
            106.9141409,
            -6.1553503
          ],
          [
            106.9141498,
            -6.1554233
          ],
          [
            106.914152,
            -6.1554954
          ],
          [
            106.9141503,
            -6.1559112
          ]
        ]
      },
      "id": "way/1119956812"
    },
    {
      "type": "Feature",
      "properties": {
        "@id": "node/11630425912",
        "@relations": [
          {
            "role": "stop",
            "rel": 10693119,
            "reltags": {
              "colour": "#f16227",
              "from": "Pegangsaan Dua",
              "name": "LRT Jakarta",
              "name:en": "Jakarta LRT",
              "name:fr": "Pegangsaan Dua->Velodrome",
              "name:id": "LRT Jakarta",
              "network": "LRT Jakarta",
              "public_transport:version": "2",
              "ref": "LRT",
              "route": "light_rail",
              "to": "Velodrome",
              "type": "route",
              "wikidata": "Q65762187"
            }
          }
        ]
      },
      "geometry": {
        "type": "Point",
        "coordinates": [
          106.9141377,
          -6.1572054
        ]
      },
      "id": "node/11630425912"
    },
    {
      "type": "Feature",
      "properties": {
        "@id": "node/6196137583",
        "@relations": [
          {
            "role": "stop",
            "rel": 10693119,
            "reltags": {
              "colour": "#f16227",
              "from": "Pegangsaan Dua",
              "name": "LRT Jakarta",
              "name:en": "Jakarta LRT",
              "name:fr": "Pegangsaan Dua->Velodrome",
              "name:id": "LRT Jakarta",
              "network": "LRT Jakarta",
              "public_transport:version": "2",
              "ref": "LRT",
              "route": "light_rail",
              "to": "Velodrome",
              "type": "route",
              "wikidata": "Q65762187"
            }
          }
        ]
      },
      "geometry": {
        "type": "Point",
        "coordinates": [
          106.9058762,
          -6.1596613
        ]
      },
      "id": "node/6196137583"
    },
    {
      "type": "Feature",
      "properties": {
        "@id": "node/6196138085",
        "@relations": [
          {
            "role": "stop",
            "rel": 10693119,
            "reltags": {
              "colour": "#f16227",
              "from": "Pegangsaan Dua",
              "name": "LRT Jakarta",
              "name:en": "Jakarta LRT",
              "name:fr": "Pegangsaan Dua->Velodrome",
              "name:id": "LRT Jakarta",
              "network": "LRT Jakarta",
              "public_transport:version": "2",
              "ref": "LRT",
              "route": "light_rail",
              "to": "Velodrome",
              "type": "route",
              "wikidata": "Q65762187"
            }
          }
        ]
      },
      "geometry": {
        "type": "Point",
        "coordinates": [
          106.9000387,
          -6.1690075
        ]
      },
      "id": "node/6196138085"
    },
    {
      "type": "Feature",
      "properties": {
        "@id": "node/6196137580",
        "@relations": [
          {
            "role": "stop",
            "rel": 10693119,
            "reltags": {
              "colour": "#f16227",
              "from": "Pegangsaan Dua",
              "name": "LRT Jakarta",
              "name:en": "Jakarta LRT",
              "name:fr": "Pegangsaan Dua->Velodrome",
              "name:id": "LRT Jakarta",
              "network": "LRT Jakarta",
              "public_transport:version": "2",
              "ref": "LRT",
              "route": "light_rail",
              "to": "Velodrome",
              "type": "route",
              "wikidata": "Q65762187"
            }
          }
        ]
      },
      "geometry": {
        "type": "Point",
        "coordinates": [
          106.8934157,
          -6.1773185
        ]
      },
      "id": "node/6196137580"
    },
    {
      "type": "Feature",
      "properties": {
        "@id": "node/6196137579",
        "@relations": [
          {
            "role": "stop",
            "rel": 10693119,
            "reltags": {
              "colour": "#f16227",
              "from": "Pegangsaan Dua",
              "name": "LRT Jakarta",
              "name:en": "Jakarta LRT",
              "name:fr": "Pegangsaan Dua->Velodrome",
              "name:id": "LRT Jakarta",
              "network": "LRT Jakarta",
              "public_transport:version": "2",
              "ref": "LRT",
              "route": "light_rail",
              "to": "Velodrome",
              "type": "route",
              "wikidata": "Q65762187"
            }
          }
        ]
      },
      "geometry": {
        "type": "Point",
        "coordinates": [
          106.8913115,
          -6.184061
        ]
      },
      "id": "node/6196137579"
    },
    {
      "type": "Feature",
      "properties": {
        "@id": "node/6196137577",
        "@relations": [
          {
            "role": "stop",
            "rel": 10693119,
            "reltags": {
              "colour": "#f16227",
              "from": "Pegangsaan Dua",
              "name": "LRT Jakarta",
              "name:en": "Jakarta LRT",
              "name:fr": "Pegangsaan Dua->Velodrome",
              "name:id": "LRT Jakarta",
              "network": "LRT Jakarta",
              "public_transport:version": "2",
              "ref": "LRT",
              "route": "light_rail",
              "to": "Velodrome",
              "type": "route",
              "wikidata": "Q65762187"
            }
          }
        ]
      },
      "geometry": {
        "type": "Point",
        "coordinates": [
          106.8912038,
          -6.1921305
        ]
      },
      "id": "node/6196137577"
    },
    {
      "type": "Feature",
      "properties": {
        "@id": "node/6196137576",
        "@relations": [
          {
            "role": "stop",
            "rel": 10693160,
            "reltags": {
              "colour": "#f16227",
              "from": "Velodrome",
              "name": "LRT Jakarta",
              "name:en": "Jakarta LRT",
              "name:fr": "Velodrome -> Pegangsaan Dua",
              "name:id": "LRT Jakarta",
              "network": "LRT Jakarta",
              "public_transport:version": "2",
              "ref": "LRT",
              "route": "light_rail",
              "to": "Pegangsaan Dua",
              "type": "route",
              "wikidata": "Q65762187"
            }
          }
        ]
      },
      "geometry": {
        "type": "Point",
        "coordinates": [
          106.8911527,
          -6.1921303
        ]
      },
      "id": "node/6196137576"
    },
    {
      "type": "Feature",
      "properties": {
        "@id": "node/6196137578",
        "@relations": [
          {
            "role": "stop",
            "rel": 10693160,
            "reltags": {
              "colour": "#f16227",
              "from": "Velodrome",
              "name": "LRT Jakarta",
              "name:en": "Jakarta LRT",
              "name:fr": "Velodrome -> Pegangsaan Dua",
              "name:id": "LRT Jakarta",
              "network": "LRT Jakarta",
              "public_transport:version": "2",
              "ref": "LRT",
              "route": "light_rail",
              "to": "Pegangsaan Dua",
              "type": "route",
              "wikidata": "Q65762187"
            }
          }
        ]
      },
      "geometry": {
        "type": "Point",
        "coordinates": [
          106.8912417,
          -6.1840586
        ]
      },
      "id": "node/6196137578"
    },
    {
      "type": "Feature",
      "properties": {
        "@id": "node/6196137581",
        "@relations": [
          {
            "role": "stop",
            "rel": 10693160,
            "reltags": {
              "colour": "#f16227",
              "from": "Velodrome",
              "name": "LRT Jakarta",
              "name:en": "Jakarta LRT",
              "name:fr": "Velodrome -> Pegangsaan Dua",
              "name:id": "LRT Jakarta",
              "network": "LRT Jakarta",
              "public_transport:version": "2",
              "ref": "LRT",
              "route": "light_rail",
              "to": "Pegangsaan Dua",
              "type": "route",
              "wikidata": "Q65762187"
            }
          }
        ]
      },
      "geometry": {
        "type": "Point",
        "coordinates": [
          106.8933719,
          -6.1772953
        ]
      },
      "id": "node/6196137581"
    },
    {
      "type": "Feature",
      "properties": {
        "@id": "node/6196137584",
        "@relations": [
          {
            "role": "stop",
            "rel": 10693160,
            "reltags": {
              "colour": "#f16227",
              "from": "Velodrome",
              "name": "LRT Jakarta",
              "name:en": "Jakarta LRT",
              "name:fr": "Velodrome -> Pegangsaan Dua",
              "name:id": "LRT Jakarta",
              "network": "LRT Jakarta",
              "public_transport:version": "2",
              "ref": "LRT",
              "route": "light_rail",
              "to": "Pegangsaan Dua",
              "type": "route",
              "wikidata": "Q65762187"
            }
          }
        ]
      },
      "geometry": {
        "type": "Point",
        "coordinates": [
          106.8999908,
          -6.1689794
        ]
      },
      "id": "node/6196137584"
    },
    {
      "type": "Feature",
      "properties": {
        "@id": "node/6196137582",
        "@relations": [
          {
            "role": "stop",
            "rel": 10693160,
            "reltags": {
              "colour": "#f16227",
              "from": "Velodrome",
              "name": "LRT Jakarta",
              "name:en": "Jakarta LRT",
              "name:fr": "Velodrome -> Pegangsaan Dua",
              "name:id": "LRT Jakarta",
              "network": "LRT Jakarta",
              "public_transport:version": "2",
              "ref": "LRT",
              "route": "light_rail",
              "to": "Pegangsaan Dua",
              "type": "route",
              "wikidata": "Q65762187"
            }
          }
        ]
      },
      "geometry": {
        "type": "Point",
        "coordinates": [
          106.9058073,
          -6.1596205
        ]
      },
      "id": "node/6196137582"
    },
    {
      "type": "Feature",
      "properties": {
        "@id": "node/11630425911",
        "@relations": [
          {
            "role": "stop",
            "rel": 10693160,
            "reltags": {
              "colour": "#f16227",
              "from": "Velodrome",
              "name": "LRT Jakarta",
              "name:en": "Jakarta LRT",
              "name:fr": "Velodrome -> Pegangsaan Dua",
              "name:id": "LRT Jakarta",
              "network": "LRT Jakarta",
              "public_transport:version": "2",
              "ref": "LRT",
              "route": "light_rail",
              "to": "Pegangsaan Dua",
              "type": "route",
              "wikidata": "Q65762187"
            }
          }
        ]
      },
      "geometry": {
        "type": "Point",
        "coordinates": [
          106.9142841,
          -6.15721
        ]
      },
      "id": "node/11630425911"
    },
    {
      "type": "Feature",
      "properties": {
        "@id": "node/5984702926",
        "light_rail": "yes",
        "name": "Boulevard Utara",
        "network": "LRT Jakarta",
        "operator": "PT LRT Jakarta",
        "public_transport": "station",
        "railway": "station",
        "station": "light_rail",
        "wikidata": "Q65760424",
        "wikipedia": "id:Stasiun LRT Boulevard Utara Summarecon Mall"
      },
      "geometry": {
        "type": "Point",
        "coordinates": [
          106.9059815,
          -6.1594366
        ]
      },
      "id": "node/5984702926"
    },
    {
      "type": "Feature",
      "properties": {
        "@id": "node/5984702927",
        "light_rail": "yes",
        "name": "Boulevard Selatan",
        "network": "LRT Jakarta",
        "operator": "PT LRT Jakarta",
        "public_transport": "station",
        "railway": "station",
        "station": "light_rail",
        "wikidata": "Q9970006",
        "wikipedia": "id:Stasiun LRT Boulevard Selatan"
      },
      "geometry": {
        "type": "Point",
        "coordinates": [
          106.9000145,
          -6.1689933
        ]
      },
      "id": "node/5984702927"
    },
    {
      "type": "Feature",
      "properties": {
        "@id": "node/5984702928",
        "light_rail": "yes",
        "name": "Pulomas",
        "network": "LRT Jakarta",
        "operator": "PT LRT Jakarta",
        "public_transport": "station",
        "railway": "station",
        "station": "light_rail",
        "wikidata": "Q9971976",
        "wikipedia": "id:Stasiun LRT Pulomas"
      },
      "geometry": {
        "type": "Point",
        "coordinates": [
          106.8933929,
          -6.1773105
        ]
      },
      "id": "node/5984702928"
    },
    {
      "type": "Feature",
      "properties": {
        "@id": "node/5984702929",
        "light_rail": "yes",
        "name": "Equestrian",
        "network": "LRT Jakarta",
        "operator": "PT LRT Jakarta",
        "public_transport": "station",
        "railway": "station",
        "station": "light_rail",
        "wikidata": "Q25329601",
        "wikipedia": "id:Stasiun LRT Equestrian"
      },
      "geometry": {
        "type": "Point",
        "coordinates": [
          106.8912789,
          -6.1840567
        ]
      },
      "id": "node/5984702929"
    },
    {
      "type": "Feature",
      "properties": {
        "@id": "node/5984702930",
        "light_rail": "yes",
        "name": "Velodrome",
        "network": "LRT Jakarta",
        "operator": "PT LRT Jakarta",
        "public_transport": "station",
        "railway": "station",
        "station": "light_rail",
        "train": "yes",
        "wikidata": "Q20462389",
        "wikipedia": "id:Stasiun LRT Velodrome"
      },
      "geometry": {
        "type": "Point",
        "coordinates": [
          106.8911771,
          -6.1921316
        ]
      },
      "id": "node/5984702930"
    },
    {
      "type": "Feature",
      "properties": {
        "@id": "node/5984702931",
        "addr:city": "DKI Jakarta",
        "addr:country": "ID",
        "light_rail": "yes",
        "name": "Pegangsaan Dua",
        "network": "LRT Jakarta",
        "operator": "PT LRT Jakarta",
        "public_transport": "station",
        "railway": "station",
        "station": "light_rail",
        "wikidata": "Q8708716"
      },
      "geometry": {
        "type": "Point",
        "coordinates": [
          106.9142091,
          -6.1572135
        ]
      },
      "id": "node/5984702931"
    }
  ]
}